"{\n    \"CCSDS_OMM_VERS\": \"2.0\",\n    \"COMMENT\": \"GENERATED VIA SPACE-TRACK.ORG API\",\n    \"CREATION_DATE\": \"2025-08-31T02:26:50\",\n    \"ORIGINATOR\": \"18 SPCS\",\n    \"OBJECT_NAME\": \"GALILEO 15 (267)\",\n    \"OBJECT_ID\": \"2016-069A\",\n    \"CENTER_NAME\": \"EARTH\",\n    \"REF_FRAME\": \"TEME\",\n    \"TIME_SYSTEM\": \"UTC\",\n    \"MEAN_ELEMENT_THEORY\": \"SGP4\",\n    \"EPOCH\": \"2025-08-30T09:16:56.537472\",\n    \"MEAN_MOTION\": \"1.704739269\",\n    \"ECCENTRICITY\": \"0.00032509329\",\n    \"INCLINATION\": \"55.315008\",\n    \"RA_OF_ASC_NODE\": \"109.14051\",\n    \"ARG_OF_PERICENTER\": \"336.73235\",\n    \"MEAN_ANOMALY\": \"23.339557\",\n    \"EPHEMERIS_TYPE\": \"0\",\n    \"CLASSIFICATION_TYPE\": \"U\",\n    \"NORAD_CAT_ID\": \"41859\",\n    \"ELEMENT_SET_NO\": \"999\",\n    \"REV_AT_EPOCH\": \"5444\",\n    \"BSTAR\": \"0\",\n    \"MEAN_MOTION_DOT\": \"-0.000000031671\",\n    \"MEAN_MOTION_DDOT\": \"0\",\n    \"TLE_LINE0\": \"0 GALILEO 15 (267)\",\n    \"TLE_LINE1\": \"1 41859U 16069A   25242.38676548 -.00000003  00000-0  00000-0 0  9995\",\n    \"TLE_LINE2\": \"2 41859  55.3150 109.1405 0003251 336.7324  23.3396  1.70473927 54440\",\n    \"SEMIMAJOR_AXIS\": \"29600.329\",\n    \"PERIOD\": \"844.704\",\n    \"APOAPSIS\": \"23231.816\",\n    \"PERIAPSIS\": \"23212.571\",\n    \"OBJECT_TYPE\": \"PAYLOAD\",\n    \"DECAYED\": \"0\"\n}"